NAVSTAR 77 (USA 289)    
1 43873U 18109A   24181.30436984  .00000019  00000+0  00000+0 0  9995
2 43873  55.3015 120.5496 0029212 194.9663 343.3523  2.00556394 40671
